1 27424U 02022A   10009.68954797  .00000032  00000-0  17064-4 0  5319
2 27424 098.2023 313.5472 0000733 115.9058 244.2191 14.57114174408833